[{"OBJECT_NAME":"STARLINK-5587","OBJECT_ID":"2023-094AD","EPOCH":"2026-03-09T05:07:26.005152","MEAN_MOTION":15.02528428,"ECCENTRICITY":0.00010866,"INCLINATION":43.0047,"RA_OF_ASC_NODE":20.3132,"ARG_OF_PERICENTER":272.5946,"MEAN_ANOMALY":87.4772,"EPHEMERIS_TYPE":0,"CLASSIFICATION_TYPE":"U","NORAD_CAT_ID":57245,"ELEMENT_SET_NO":999,"REV_AT_EPOCH":14719,"BSTAR":-0.00011873152,"MEAN_MOTION_DOT":-1.807e-5,"MEAN_MOTION_DDOT":0},{"OBJECT_NAME":"UNKNOWN","OBJECT_ID":"","EPOCH":"2026-03-08T12:59:39.172704","MEAN_MOTION":15.0131728,"ECCENTRICITY":0.00204305,"INCLINATION":86.3534,"RA_OF_ASC_NODE":358.469,"ARG_OF_PERICENTER":121.5673,"MEAN_ANOMALY":238.7558,"EPHEMERIS_TYPE":0,"CLASSIFICATION_TYPE":"U","NORAD_CAT_ID":270086,"ELEMENT_SET_NO":999,"REV_AT_EPOCH":9441,"BSTAR":0.0053525659,"MEAN_MOTION_DOT":0.00069778,"MEAN_MOTION_DDOT":0}]
